{"type": "FeatureCollection", "features": [ {"type": "Feature", "properties": {"norad_id": 34327, "name": "COSMOS 2251 DEB", "group": "cosmos-2251-debris", "lat": 20.940794966897304, "lon": 163.75213185364936, "alt_km": 584.5330515052992, "timestamp": "2025-12-19T22:41:52.789978+00:00", "meta": {"OBJECT_NAME": "COSMOS 2251 DEB", "OBJECT_ID": "1993-036NZ", "EPOCH": "2025-12-19T11:27:15.251040", "MEAN_MOTION": 14.89319872, "ECCENTRICITY": 0.0033302, "INCLINATION": 73.9926, "RA_OF_ASC_NODE": 158.3834, "ARG_OF_PERICENTER": 333.362, "MEAN_ANOMALY": 57.4994, "EPHEMERIS_TYPE": 0, "CLASSIFICATION_TYPE": "U", "NORAD_CAT_ID": 34327, "ELEMENT_SET_NO": 999, "REV_AT_EPOCH": 89608, "BSTAR": 0.00087594, "MEAN_MOTION_DOT": 8.365e-05, "MEAN_MOTION_DDOT": 0}, "tle": {"line1": "1 34327U 93036NZ  25353.47725985  .00008365  00000+0  87594-3 0  9992", "line2": "2 34327  73.9926 158.3834 0033302 333.3620  57.4994 14.89319872896081"}}, "geometry": {"type": "Point", "coordinates": [163.75213185364936, 20.940794966897304]}}, {"type": "Feature", "properties": {"norad_id": 34340, "name": "COSMOS 2251 DEB", "group": "cosmos-2251-debris", "lat": -32.90790827410314, "lon": 126.59579816674503, "alt_km": 1177.2649515473713, "timestamp": "2025-12-19T22:41:52.789988+00:00", "meta": {"OBJECT_NAME": "COSMOS 2251 DEB", "OBJECT_ID": "1993-036PN", "EPOCH": "2025-12-19T13:48:31.198176", "MEAN_MOTION": 13.79597529, "ECCENTRICITY": 0.0283515, "INCLINATION": 74.0787, "RA_OF_ASC_NODE": 296.5699, "ARG_OF_PERICENTER": 42.7474, "MEAN_ANOMALY": 132.2594, "EPHEMERIS_TYPE": 0, "CLASSIFICATION_TYPE": "U", "NORAD_CAT_ID": 34340, "ELEMENT_SET_NO": 999, "REV_AT_EPOCH": 84362, "BSTAR": 0.001235, "MEAN_MOTION_DOT": 1.701e-05, "MEAN_MOTION_DDOT": 0}, "tle": {"line1": "1 34340U 93036PN  25353.57536109  .00001701  00000+0  12350-2 0  9990", "line2": "2 34340  74.0787 296.5699 0283515  42.7474 132.2594 13.79597529843623"}}, "geometry": {"type": "Point", "coordinates": [126.59579816674503, -32.90790827410314]}}, {"type": "Feature", "properties": {"norad_id": 34343, "name": "COSMOS 2251 DEB", "group": "cosmos-2251-debris", "lat": 72.33141986523404, "lon": -168.5214380524935, "alt_km": 660.8707790236913, "timestamp": "2025-12-19T22:41:52.789999+00:00", "meta": {"OBJECT_NAME": "COSMOS 2251 DEB", "OBJECT_ID": "1993-036PR", "EPOCH": "2025-12-19T16:24:38.901312", "MEAN_MOTION": 14.69539596, "ECCENTRICITY": 0.0023984, "INCLINATION": 74.0206, "RA_OF_ASC_NODE": 76.0885, "ARG_OF_PERICENTER": 348.4913, "MEAN_ANOMALY": 163.535, "EPHEMERIS_TYPE": 0, "CLASSIFICATION_TYPE": "U", "NORAD_CAT_ID": 34343, "ELEMENT_SET_NO": 999, "REV_AT_EPOCH": 88832, "BSTAR": 0.00082048, "MEAN_MOTION_DOT": 4.862e-05, "MEAN_MOTION_DDOT": 0}, "tle": {"line1": "1 34343U 93036PR  25353.68378358  .00004862  00000+0  82048-3 0  9998", "line2": "2 34343  74.0206  76.0885 0023984 348.4913 163.5350 14.69539596888329"}}, "geometry": {"type": "Point", "coordinates": [-168.5214380524935, 72.33141986523404]}}, {"type": "Feature", "properties": {"norad_id": 34344, "name": "COSMOS 2251 DEB", "group": "cosmos-2251-debris", "lat": -72.42089155937987, "lon": -17.43834883787864, "alt_km": 736.592237873605, "timestamp": "2025-12-19T22:41:52.790009+00:00", "meta": {"OBJECT_NAME": "COSMOS 2251 DEB", "OBJECT_ID": "1993-036PS", "EPOCH": "2025-12-18T17:13:37.907904", "MEAN_MOTION": 14.16454578, "ECCENTRICITY": 0.01562401, "INCLINATION": 73.9796, "RA_OF_ASC_NODE": 99.676, "ARG_OF_PERICENTER": 282.6089, "MEAN_ANOMALY": 201.4311, "EPHEMERIS_TYPE": 0, "CLASSIFICATION_TYPE": "U", "NORAD_CAT_ID": 34344, "ELEMENT_SET_NO": 999, "REV_AT_EPOCH": 86181, "BSTAR": 0.0015826322, "MEAN_MOTION_DOT": 3.521e-05, "MEAN_MOTION_DDOT": 0}, "tle": {"line1": "1 34344U 93036PS  25352.71779986  .00003521  00000+0  15826-2 0  9994", "line2": "2 34344  73.9796  99.6760 0156240 282.6089 201.4311 14.16454578861812"}}, "geometry": {"type": "Point", "coordinates": [-17.43834883787864, -72.42089155937987]}}, {"type": "Feature", "properties": {"norad_id": 34346, "name": "COSMOS 2251 DEB", "group": "cosmos-2251-debris", "lat": -54.990074526164356, "lon": -84.4471762514947, "alt_km": 1050.9117736160633, "timestamp": "2025-12-19T22:41:52.790020+00:00", "meta": {"OBJECT_NAME": "COSMOS 2251 DEB", "OBJECT_ID": "1993-036PU", "EPOCH": "2025-12-18T21:33:18.959040", "MEAN_MOTION": 13.99711117, "ECCENTRICITY": 0.02061809, "INCLINATION": 73.9946, "RA_OF_ASC_NODE": 301.5601, "ARG_OF_PERICENTER": 119.0026, "MEAN_ANOMALY": 305.9706, "EPHEMERIS_TYPE": 0, "CLASSIFICATION_TYPE": "U", "NORAD_CAT_ID": 34346, "ELEMENT_SET_NO": 999, "REV_AT_EPOCH": 85496, "BSTAR": 0.00077636968, "MEAN_MOTION_DOT": 1.342e-05, "MEAN_MOTION_DDOT": 0}, "tle": {"line1": "1 34346U 93036PU  25352.89813610  .00001342  00000+0  77637-3 0  9996", "line2": "2 34346  73.9946 301.5601 0206180 119.0026 305.9706 13.99711117854964"}}, "geometry": {"type": "Point", "coordinates": [-84.4471762514947, -54.990074526164356]}}, {"type": "Feature", "properties": {"norad_id": 34383, "name": "COSMOS 2251 DEB", "group": "cosmos-2251-debris", "lat": 70.97967392130512, "lon": 46.60885279684743, "alt_km": 529.0486910775289, "timestamp": "2025-12-19T22:41:52.790031+00:00", "meta": {"OBJECT_NAME": "COSMOS 2251 DEB", "OBJECT_ID": "1993-036PY", "EPOCH": "2025-12-19T13:29:12.808320", "MEAN_MOTION": 15.09567033, "ECCENTRICITY": 0.0002927, "INCLINATION": 74.0217, "RA_OF_ASC_NODE": 283.6226, "ARG_OF_PERICENTER": 46.95, "MEAN_ANOMALY": 128.6039, "EPHEMERIS_TYPE": 0, "CLASSIFICATION_TYPE": "U", "NORAD_CAT_ID": 34383, "ELEMENT_SET_NO": 999, "REV_AT_EPOCH": 89216, "BSTAR": 0.0020181, "MEAN_MOTION_DOT": 0.00032523, "MEAN_MOTION_DDOT": 0}, "tle": {"line1": "1 34383U 93036PY  25353.56195380  .00032523  00000+0  20181-2 0  9995", "line2": "2 34383  74.0217 283.6226 0002927  46.9500 128.6039 15.09567033892161"}}, "geometry": {"type": "Point", "coordinates": [46.60885279684743, 70.97967392130512]}}, {"type": "Feature", "properties": {"norad_id": 34387, "name": "COSMOS 2251 DEB", "group": "cosmos-2251-debris", "lat": 38.84336012765209, "lon": 5.177768031524719, "alt_km": 767.6424392069684, "timestamp": "2025-12-19T22:41:52.790105+00:00", "meta": {"OBJECT_NAME": "COSMOS 2251 DEB", "OBJECT_ID": "1993-036QC", "EPOCH": "2025-12-19T13:52:41.651904", "MEAN_MOTION": 14.43834368, "ECCENTRICITY": 0.0038877, "INCLINATION": 74.039, "RA_OF_ASC_NODE": 199.185, "ARG_OF_PERICENTER": 294.9006, "MEAN_ANOMALY": 95.1186, "EPHEMERIS_TYPE": 0, "CLASSIFICATION_TYPE": "U", "NORAD_CAT_ID": 34387, "ELEMENT_SET_NO": 999, "REV_AT_EPOCH": 88280, "BSTAR": 0.00021197, "MEAN_MOTION_DOT": 7.01e-06, "MEAN_MOTION_DDOT": 0}, "tle": {"line1": "1 34387U 93036QC  25353.57825986  .00000701  00000+0  21197-3 0  9994", "line2": "2 34387  74.0390 199.1850 0038877 294.9006  95.1186 14.43834368882806"}}, "geometry": {"type": "Point", "coordinates": [5.177768031524719, 38.84336012765209]}}, {"type": "Feature", "properties": {"norad_id": 34388, "name": "COSMOS 2251 DEB", "group": "cosmos-2251-debris", "lat": -73.53011350298117, "lon": 105.08062494215338, "alt_km": 724.8582876538349, "timestamp": "2025-12-19T22:41:52.790117+00:00", "meta": {"OBJECT_NAME": "COSMOS 2251 DEB", "OBJECT_ID": "1993-036QD", "EPOCH": "2025-12-19T14:59:23.455392", "MEAN_MOTION": 14.49396358, "ECCENTRICITY": 0.0013828, "INCLINATION": 74.0381, "RA_OF_ASC_NODE": 210.192, "ARG_OF_PERICENTER": 258.0327, "MEAN_ANOMALY": 132.719, "EPHEMERIS_TYPE": 0, "CLASSIFICATION_TYPE": "U", "NORAD_CAT_ID": 34388, "ELEMENT_SET_NO": 999, "REV_AT_EPOCH": 88255, "BSTAR": 0.00043519, "MEAN_MOTION_DOT": 1.639e-05, "MEAN_MOTION_DDOT": 0}, "tle": {"line1": "1 34388U 93036QD  25353.62457703  .00001639  00000+0  43519-3 0  9992", "line2": "2 34388  74.0381 210.1920 0013828 258.0327 132.7190 14.49396358882558"}}, "geometry": {"type": "Point", "coordinates": [105.08062494215338, -73.53011350298117]}}, {"type": "Feature", "properties": {"norad_id": 34389, "name": "COSMOS 2251 DEB", "group": "cosmos-2251-debris", "lat": 73.3937247938619, "lon": -49.609443968890574, "alt_km": 748.96539481325, "timestamp": "2025-12-19T22:41:52.790128+00:00", "meta": {"OBJECT_NAME": "COSMOS 2251 DEB", "OBJECT_ID": "1993-036QE", "EPOCH": "2025-12-19T03:00:47.911392", "MEAN_MOTION": 14.4154771, "ECCENTRICITY": 0.00291995, "INCLINATION": 74.0181, "RA_OF_ASC_NODE": 237.9732, "ARG_OF_PERICENTER": 348.8426, "MEAN_ANOMALY": 161.5527, "EPHEMERIS_TYPE": 0, "CLASSIFICATION_TYPE": "U", "NORAD_CAT_ID": 34389, "ELEMENT_SET_NO": 999, "REV_AT_EPOCH": 88104, "BSTAR": 0.00026377286, "MEAN_MOTION_DOT": 8.35e-06, "MEAN_MOTION_DDOT": 0}, "tle": {"line1": "1 34389U 93036QE  25353.12555453  .00000835  00000+0  26377-3 0  9999", "line2": "2 34389  74.0181 237.9732 0029199 348.8426 161.5527 14.41547710881040"}}, "geometry": {"type": "Point", "coordinates": [-49.609443968890574, 73.3937247938619]}}, {"type": "Feature", "properties": {"norad_id": 34396, "name": "COSMOS 2251 DEB", "group": "cosmos-2251-debris", "lat": 34.29582993097232, "lon": -81.307817343355, "alt_km": 640.2196148684316, "timestamp": "2025-12-19T22:41:52.790139+00:00", "meta": {"OBJECT_NAME": "COSMOS 2251 DEB", "OBJECT_ID": "1993-036QM", "EPOCH": "2025-12-19T10:59:32.903808", "MEAN_MOTION": 14.74585964, "ECCENTRICITY": 0.0005236, "INCLINATION": 74.0293, "RA_OF_ASC_NODE": 110.9085, "ARG_OF_PERICENTER": 149.4452, "MEAN_ANOMALY": 286.5385, "EPHEMERIS_TYPE": 0, "CLASSIFICATION_TYPE": "U", "NORAD_CAT_ID": 34396, "ELEMENT_SET_NO": 999, "REV_AT_EPOCH": 88445, "BSTAR": 0.0013068, "MEAN_MOTION_DOT": 8.688e-05, "MEAN_MOTION_DDOT": 0}, "tle": {"line1": "1 34396U 93036QM  25353.45801972  .00008688  00000+0  13068-2 0  9999", "line2": "2 34396  74.0293 110.9085 0005236 149.4452 286.5385 14.74585964884450"}}, "geometry": {"type": "Point", "coordinates": [-81.307817343355, 34.29582993097232]}}]}